     2.100          NAVIGATION                              RINEX VERSION / TYPE
fic2rin                                 11/02/2008 05:31:48 PGM / RUN BY / DATE
                                                            END OF HEADER
16 08 11  1 22  0  0.0  .979211181402D-04 -.238742359215D-11  .000000000000D+00
     .550000000000D+02 -.145000000000D+02  .434518099423D-08  .338773467983D+00
    -.769272446632D-06  .474265345838D-02  .788271427155D-05  .515369844246D+04
     .597600000000D+06  .670552253723D-07  .128616314990D+01 -.100582838058D-06
     .966392377733D+00  .229093750000D+03 -.387209867817D+00 -.790818655057D-08
     .468948104999D-09  .100000000000D+01  .150300000000D+04  .000000000000D+00
     .240000000000D+01  .000000000000D+00 -.977888703346D-08  .550000000000D+02
     .590406000000D+06  .400000000000D+01
17 08 11  1 22  0  0.0  .400026328862D-04  .341060513165D-12  .000000000000D+00
     .660000000000D+02 -.140937500000D+02  .488377485740D-08 -.777645032586D+00
    -.685453414917D-06  .390485103708D-02  .620447099209D-05  .515359844589D+04
     .597600000000D+06  .949949026108D-07  .232813578287D+01  .167638063431D-07
     .959459202264D+00  .258906250000D+03 -.280030435189D+01 -.803854912355D-08
    -.122505102829D-09  .100000000000D+01  .150300000000D+04  .000000000000D+00
     .240000000000D+01  .000000000000D+00 -.102445483208D-07  .660000000000D+02
     .590406000000D+06  .400000000000D+01
19 08 11  1 22  0  0.0  .356389209628D-04 -.113686837722D-12  .000000000000D+00
     .710000000000D+02 -.142187500000D+02  .492270505042D-08 -.142584774977D+01
    -.936910510063D-06  .491761683952D-02  .646896660328D-05  .515374003792D+04
     .597600000000D+06 -.316649675369D-07  .238478742447D+01 -.875443220139D-07
     .957264800276D+00  .255375000000D+03 -.435343298779D+00 -.812212403335D-08
    -.817891211309D-10  .100000000000D+01  .150300000000D+04  .000000000000D+00
     .240000000000D+01  .000000000000D+00 -.144354999065D-07  .710000000000D+02
     .590406000000D+06  .400000000000D+01
20 08 11  1 22  0  0.0  .100251752883D-03 -.102318153949D-11  .000000000000D+00
     .760000000000D+02  .107718750000D+03  .486377402428D-08  .580273467908D+00
     .556744635105D-05  .357197341509D-02  .534020364285D-05  .515375048828D+04
     .597600000000D+06 -.298023223877D-07 -.189557607341D+01  .447034835815D-07
     .944880651603D+00  .266562500000D+03  .133547891565D+01 -.834677624816D-08
     .525021869268D-10  .100000000000D+01  .150300000000D+04  .000000000000D+00
     .240000000000D+01  .000000000000D+00 -.651925802231D-08  .760000000000D+02
     .590406000000D+06  .400000000000D+01
21 08 11  1 22  0  0.0  .443011522293D-04 -.159161572810D-11  .000000000000D+00
     .920000000000D+02  .330625000000D+02  .505985362036D-08  .170542599025D+01
     .187195837498D-05  .143606861820D-01  .100806355476D-04  .515367815590D+04
     .597600000000D+06 -.240281224251D-06 -.290023536425D+01  .204890966415D-06
     .935679095842D+00  .175062500000D+03 -.266845802906D+01 -.821712799065D-08
    -.471091051405D-09  .100000000000D+01  .150300000000D+04  .000000000000D+00
     .240000000000D+01  .000000000000D+00 -.116415321827D-07  .920000000000D+02
     .590406000000D+06  .400000000000D+01
22 08 11  1 22  0  0.0  .209793448448D-03 -.568434188608D-12  .000000000000D+00
     .980000000000D+02  .101156250000D+03  .499235080859D-08 -.713431495754D+00
     .526756048203D-05  .514328829013D-02  .535883009434D-05  .515367020607D+04
     .597600000000D+06 -.745058059692D-07 -.183570254346D+01  .260770320892D-07
     .942937576015D+00  .266437500000D+03 -.181445545336D+01 -.841999358367D-08
     .332156692802D-10  .100000000000D+01  .150300000000D+04  .000000000000D+00
     .340000000000D+01  .000000000000D+00 -.176951289177D-07  .980000000000D+02
     .590406000000D+06  .400000000000D+01
23 08 11  1 22  0  0.0  .378682743758D-03  .113686837722D-11  .000000000000D+00
     .730000000000D+02 -.349687500000D+02  .442589864216D-08 -.205779277892D+01
    -.184029340744D-05  .583754666150D-02  .194460153580D-05  .515367917633D+04
     .597600000000D+06 -.782310962677D-07 -.823233151399D+00 -.782310962677D-07
     .971031735689D+00  .348531250000D+03  .286720408135D+01 -.820141305034D-08
    -.124648049234D-09  .100000000000D+01  .150300000000D+04  .000000000000D+00
     .240000000000D+01  .000000000000D+00 -.200234353542D-07  .730000000000D+02
     .590406000000D+06  .400000000000D+01
24 08 11  1 22  0  0.0  .137760769576D-03  .284217094304D-11  .000000000000D+00
     .170000000000D+02  .434375000000D+02  .469376694280D-08  .355376874279D+00
     .226497650146D-05  .736831803806D-02  .968948006630D-05  .515366144371D+04
     .597600000000D+06 -.111758708954D-07 -.287162072758D+01 -.143423676491D-06
     .952334358194D+00  .188750000000D+03 -.680500607067D+00 -.803247744207D-08
    -.314298806093D-09  .100000000000D+01  .150300000000D+04  .000000000000D+00
     .240000000000D+01  .000000000000D+00 -.139698386192D-08  .170000000000D+02
     .590406000000D+06  .400000000000D+01
25 08 11  1 22  0  0.0 -.110450200737D-04  .322870619129D-10  .000000000000D+00
     .460000000000D+02 -.972500000000D+02  .421696136765D-08  .877025600071D+00
    -.524520874023D-05  .116189352702D-01  .786036252975D-05  .515369582367D+04
     .597600000000D+06 -.109896063805D-06  .124429680733D+00 -.210478901863D-06
     .967316225129D+00  .233906250000D+03 -.125136484190D+01 -.803783480808D-08
    -.367872466222D-10  .100000000000D+01  .150300000000D+04  .000000000000D+00
     .485000000000D+01  .000000000000D+00 -.745058059692D-08  .460000000000D+02
     .590406000000D+06  .400000000000D+01
26 08 11  1 22  0  0.0  .101905316114D-04  .466116034659D-11  .000000000000D+00
     .690000000000D+02 -.376250000000D+02  .386980405001D-08 -.251671965132D+01
    -.188685953617D-05  .192481348058D-01  .147707760334D-05  .515363523102D+04
     .597600000000D+06  .189989805222D-06 -.777899262878D+00 -.126659870148D-06
     .993240697353D+00  .367687500000D+03  .958862213191D+00 -.774496546604D-08
    -.189293599124D-10  .100000000000D+01  .150300000000D+04  .000000000000D+00
     .240000000000D+01  .000000000000D+00 -.605359673500D-08  .690000000000D+02
     .590406000000D+06  .400000000000D+01
27 08 11  1 22  0  0.0  .229594297707D-03  .284217094304D-11  .000000000000D+00
     .940000000000D+02 -.976250000000D+02  .415838749925D-08  .824061299084D+00
    -.519119203091D-05  .213180268183D-01  .850297510624D-05  .515371624565D+04
     .597600000000D+06 -.320374965668D-06  .159789453769D+00 -.111758708954D-06
     .971938099752D+00  .230812500000D+03 -.167866808921D+01 -.818534095231D-08
    -.148220459691D-09  .100000000000D+01  .150300000000D+04  .000000000000D+00
     .340000000000D+01  .000000000000D+00 -.419095158577D-08  .940000000000D+02
     .590406000000D+06  .400000000000D+01
28 08 11  1 22  0  0.0 -.233831815422D-04 -.113686837722D-12  .000000000000D+00
     .210000000000D+02 -.896875000000D+01  .453233164695D-08 -.357633222071D+00
    -.352039933205D-06  .141341434792D-01  .822357833385D-05  .515363328362D+04
     .597600000000D+06 -.782310962677D-07  .129463161108D+01  .212341547012D-06
     .964559682240D+00  .225812500000D+03 -.208779544689D+01 -.813319592311D-08
     .537522389965D-09  .100000000000D+01  .150300000000D+04  .000000000000D+00
     .240000000000D+01  .000000000000D+00 -.102445483208D-07  .210000000000D+02
     .590406000000D+06  .400000000000D+01
29 08 11  1 22  0  0.0 -.319886021316D-04  .159161572810D-11  .000000000000D+00
     .260000000000D+02 -.110625000000D+02  .487377444084D-08  .181945491299D+01
    -.553205609322D-06  .330123363528D-02  .621937215328D-05  .515379587746D+04
     .597600000000D+06  .108033418655D-06  .233630273225D+01 -.428408384323D-07
     .959625505328D+00  .261937500000D+03 -.134080559348D+01 -.796854620765D-08
    -.507163982558D-10  .100000000000D+01  .150300000000D+04  .000000000000D+00
     .240000000000D+01  .000000000000D+00 -.884756445885D-08  .260000000000D+02
     .590406000000D+06  .400000000000D+01
30 08 11  1 22  0  0.0  .105402432382D-03  .216004991671D-11  .000000000000D+00
     .290000000000D+02 -.175625000000D+02  .479162816197D-08  .582564466377D-01
    -.103563070297D-05  .111597739160D-01  .814348459244D-05  .515367328835D+04
     .597600000000D+06 -.150874257088D-06  .122512428136D+01  .670552253723D-07
     .949757223189D+00  .220281250000D+03  .141249859304D+01 -.818284084817D-08
     .465376527657D-09  .100000000000D+01  .150300000000D+04  .000000000000D+00
     .240000000000D+01  .000000000000D+00 -.791624188423D-08  .290000000000D+02
     .590406000000D+06  .400000000000D+01
31 08 11  1 22  0  0.0 -.359923578799D-04 -.227373675443D-11  .000000000000D+00
     .102000000000D+03 -.995312500000D+02  .395123601341D-08  .255036312447D+01
    -.499933958054D-05  .681989570148D-02  .776350498199D-05  .515357506752D+04
     .597600000000D+06  .651925802231D-07  .216171701928D+00  .000000000000D+00
     .970351156941D+00  .232718750000D+03 -.123834216606D+01 -.764067540766D-08
    -.785747015231D-11  .100000000000D+01  .150300000000D+04  .000000000000D+00
     .240000000000D+01  .000000000000D+00 -.130385160446D-07  .102000000000D+03
     .590406000000D+06  .400000000000D+01
32 08 11  1 22  0  0.0  .315201003104D-03 -.909494701773D-12  .000000000000D+00
     .600000000000D+02  .107718750000D+03  .426410618857D-08 -.280929284388D+01
     .555068254471D-05  .139496994670D-01  .453181564808D-05  .515372951698D+04
     .597600000000D+06  .838190317154D-07 -.179032776931D+01  .197440385818D-06
     .966772006437D+00  .290875000000D+03 -.125996000056D+01 -.780996817367D-08
     .128933942045D-09  .100000000000D+01  .150300000000D+04  .000000000000D+00
     .240000000000D+01  .000000000000D+00 -.325962901115D-08  .600000000000D+02
     .590406000000D+06  .400000000000D+01
